STARLINK-31036          
1 58533U 23192C   25170.35049714 -.00001344  00000+0 -33253-4 0  9992
2 58533  53.1598 206.1905 0001260  88.3476 271.7669 15.30196186 85668
STARLINK-30936          
1 58534U 23192D   25171.08665871  .00000738  00000+0  28427-4 0  9993
2 58534  53.1590 193.7355 0001210  87.5613 272.5530 15.39621659 87092
STARLINK-31032          
1 58535U 23192E   25171.49768185 -.00000878  00000+0 -17548-4 0  9990
2 58535  53.1590 200.5252 0001179  83.4433 276.6702 15.30179733 87048
STARLINK-31037          
1 58536U 23192F   25171.37126018 -.00000144  00000+0  72582-5 0  9996
2 58536  53.1582 201.1750 0001075  75.3592 284.7528 15.30191441 87025
STARLINK-31041          
1 58537U 23192G   25171.10893615  .00000948  00000+0  44131-4 0  9991
2 58537  53.1595 202.3635 0000945  87.0359 273.0750 15.30192836 86982
STARLINK-31014          
1 58538U 23192H   25171.38075315  .00000727  00000+0  36672-4 0  9997
2 58538  53.1589 201.2152 0001082  91.9960 268.1165 15.30190067 86960
STARLINK-31055          
1 58539U 23192J   25171.44924185  .00001644  00000+0  67623-4 0  9992
2 58539  53.1594 200.9335 0001449 100.7065 259.4099 15.30196285 87023
STARLINK-31019          
1 58540U 23192K   25170.39469852  .00001093  00000+0  49049-4 0  9992
2 58540  53.1586 205.7262 0001080  96.6929 263.4195 15.30189624 85671
STARLINK-31045          
1 58541U 23192L   25170.56478171  .00000090  00000+0  25664-4 0  9999
2 58541  53.1620 279.9804 0001100  87.8457 272.2658 15.04924793 84639
STARLINK-31030          
1 58542U 23192M   25171.45240048 -.00000037  00000+0  10883-4 0  9998
2 58542  53.1591 200.9501 0001203  86.0891 274.0247 15.30191988 87023
STARLINK-31049          
1 58543U 23192N   25171.52087925 -.00002831  00000+0 -83514-4 0  9996
2 58543  53.1603 200.6663 0001344  91.3866 268.7288 15.30196304 87034
STARLINK-31048          
1 58544U 23192P   25171.35119694  .00001188  00000+0  52217-4 0  9995
2 58544  53.1588 200.9911 0001099  61.2159 298.8952 15.30200946 87023
STARLINK-31057          
1 58545U 23192Q   25171.45874020 -.00001091  00000+0 -24716-4 0  9996
2 58545  53.1594 200.9870 0001145  87.4785 272.6347 15.30183019 87032
STARLINK-31050          
1 58546U 23192R   25170.87406444 -.00000436  00000+0 -25968-5 0  9996
2 58546  53.1593 203.7376 0001226  88.8938 271.2203 15.30189968 86875
STARLINK-31063          
1 58547U 23192S   25171.34073794 -.00000256  00000+0  34720-5 0  9993
2 58547  53.1588 190.9906 0001266  79.3744 280.7399 15.30190128 86949
STARLINK-31016          
1 58548U 23192T   25171.48499182  .00000102  00000+0  15583-4 0  9996
2 58548  53.1594 200.4011 0000969  74.2204 285.8903 15.30192374 87038
STARLINK-31053          
1 58549U 23192U   25171.46506183 -.00000048  00000+0  10519-4 0  9999
2 58549  53.1587 201.0265 0001339  95.6293 264.4860 15.30192011 87028
STARLINK-31056          
1 58550U 23192V   25171.35753566  .00000644  00000+0  33854-4 0  9996
2 58550  53.1593 201.0726 0001048  75.3559 284.7558 15.30192268 87029
STARLINK-30999          
1 58551U 23192W   25170.33789691 -.00000659  00000+0 -10128-4 0  9999
2 58551  53.1588 196.0212 0000823  92.6211 267.4884 15.30196107 85804
STARLINK-31046          
1 58552U 23192X   25171.47245277 -.00000248  00000+0  37407-5 0  9996
2 58552  53.1596 201.0730 0001265  89.1999 270.9147 15.30184186 87022
HONGHU 2                
1 58555U 23193C   25171.52523760  .00002900  00000+0  16510-3 0  9998
2 58555  97.2594 168.9029 0038990 109.9676 250.5761 15.12942045 85190
YAOGAN-39 05A           
1 58557U 23194A   25171.38708042  .00007807  00000+0  32405-3 0  9995
2 58557  34.9983 172.6988 0006883 273.6683  86.3244 15.23104710 85160
YAOGAN-39 05B           
1 58558U 23194B   25171.37963070  .00003599  00000+0  18129-3 0  9990
2 58558  34.9916 176.3464 0003825 119.1366 240.9730 15.16676748 85112
YAOGAN-39 05C           
1 58559U 23194C   25171.38382827  .00003682  00000+0  18523-3 0  9998
2 58559  34.9908 176.3611 0006520  34.8813 325.2326 15.16704412 85133
ALISIO-1                
1 58562U 23185M   25170.88216163  .00003061  00000+0  17632-3 0  9996
2 58562  97.5773 241.3344 0008149 123.8107 236.3901 15.13142830 83699
INTUITION-1             
1 58565U 23174CW  25171.49312634  .00022043  00000+0  49245-3 0  9991
2 58565  97.4124 252.5468 0007332  11.3033 348.8378 15.43510660 90041
QPS-SAR-5 (TSUKUYOMI-I) 
1 58578U 23196A   25170.75777019  .00006499  00000+0  37651-3 0  9994
2 58578  42.0129 263.5438 0017877  17.8025 342.3428 15.12523562 83185
YAOGAN-41               
1 58582U 23197A   25170.88451743 -.00000351  00000+0  00000+0 0  9993
2 58582   3.8292 309.0573 0017014 181.8630 219.0351  1.00266694  5696
ARKTIKA-M 2             
1 58584U 23198A   25171.36012654  .00000246  00000+0  00000+0 0  9996
2 58584  63.2305 194.0144 6871538 268.8129  18.5047  2.00602478 11059
LIANGXI (DI'ER-1)       
1 58586U 23199A   25171.46841403  .00072187  00000+0  61838-3 0  9995
2 58586  97.4417 303.6959 0003571  89.2146 270.9524 15.69199010 84740
STARLINK-31044          
1 58589U 23200A   25171.00335975  .00000513  00000+0  53044-4 0  9998
2 58589  43.0026 157.2413 0001212 280.5579  79.5126 15.02536211 84106
STARLINK-31062          
1 58590U 23200B   25171.02147810  .00000030  00000+0  17323-4 0  9995
2 58590  43.0025 159.1031 0001337 294.7382  65.3321 15.02537419 84090
STARLINK-31096          
1 58592U 23200D   25171.31501509  .00000054  00000+0  19074-4 0  9999
2 58592  43.0033 157.0115 0001401 298.9789  61.0913 15.02534879 84143
STARLINK-31094          
1 58593U 23200E   25171.39236345  .00003957  00000+0  30799-3 0  9992
2 58593  43.0026 155.8764 0001023 261.7676  98.3051 15.02516291 84161
STARLINK-31075          
1 58594U 23200F   25171.31255801  .00000091  00000+0  21830-4 0  9996
2 58594  43.0025 156.1266 0001163 279.7908  80.2803 15.02535627 84152
STARLINK-30857          
1 58595U 23200G   25170.65111076  .00000449  00000+0  48338-4 0  9997
2 58595  43.0030 159.7739 0001728 297.4744  62.5923 15.02540223 84025
STARLINK-31059          
1 58596U 23200H   25171.04935133  .00002186  00000+0  88950-4 0  9994
2 58596  42.9981  55.3819 0001067 255.6290 104.4443 15.27567434 85313
STARLINK-31087          
1 58597U 23200J   25170.97684026  .00000199  00000+0  29776-4 0  9991
2 58597  43.0022 157.9169 0001138 285.0657  75.0059 15.02534081 83973
STARLINK-31079          
1 58598U 23200K   25171.22054207  .00002607  00000+0  20277-3 0  9995
2 58598  43.0018 156.3094 0001485 346.3102  13.7700 15.03523244 84142
STARLINK-31052          
1 58600U 23200M   25170.37189673  .00001666  00000+0  13840-3 0  9992
2 58600  43.0023 161.1200 0001310 278.4908  81.5786 15.02535276 83986
STARLINK-31074          
1 58601U 23200N   25170.36854840  .00000614  00000+0  60498-4 0  9991
2 58601  43.0027 161.0948 0001202 269.4503  90.6201 15.02530941 83987
STARLINK-31071          
1 58602U 23200P   25171.35517138  .00000385  00000+0  24549-4 0  9990
2 58602  43.0045  49.8575 0000836 280.3171  79.7586 15.25911681 85280
STARLINK-31080          
1 58603U 23200Q   25171.02999922  .00000043  00000+0  18270-4 0  9995
2 58603  43.0022 157.4578 0001324 290.8648  69.2052 15.02536752 83820
STARLINK-31088          
1 58604U 23200R   25171.22611001  .00000824  00000+0  76053-4 0  9997
2 58604  43.0028 156.3328 0001418 278.0735  81.9947 15.02543669 84131
STARLINK-31038          
1 58605U 23200S   25171.21943868 -.00000172  00000+0  23399-5 0  9999
2 58605  43.0017 156.2968 0001409 295.4100  64.6597 15.02532643 84137
STARLINK-31082          
1 58606U 23200T   25171.02333915  .00000634  00000+0  61997-4 0  9992
2 58606  43.0018 157.4053 0001243 273.2264  86.8436 15.02535066 84105
STARLINK-31069          
1 58607U 23200U   25170.95020402  .00000048  00000+0  18636-4 0  9999
2 58607  43.0027 157.7150 0001687 283.9033  76.1622 15.02532739 84092
STARLINK-31067          
1 58608U 23200V   25170.34857270  .00000947  00000+0  85171-4 0  9990
2 58608  43.0022 160.9401 0001870 275.3457  84.7172 15.02537516 83982
STARLINK-31085          
1 58609U 23200W   25171.34242332  .00000724  00000+0  68693-4 0  9992
2 58609  43.0028 155.4982 0001560 264.0803  95.9862 15.02538856 84167
STARLINK-31089          
1 58610U 23200X   25171.26605308  .00000437  00000+0  47427-4 0  9994
2 58610  43.0033 156.5858 0001424 298.2893  61.7806 15.02533920 84140
STARLINK-31061          
1 58611U 23200Y   25171.00669012  .00001070  00000+0  94254-4 0  9993
2 58611  43.0023 157.2774 0001457 284.8285  75.2396 15.02535150 84092
COSMOS 2573             
1 58614U 23201A   25171.49947797  .00003428  00000+0  14119-3 0  9999
2 58614  97.5881 110.3594 0002453 109.3972 250.7530 15.24808713 83374
STARLINK-31054          
1 58619U 23203B   25170.53493361  .00000960  00000+0  44387-4 0  9992
2 58619  43.0004 113.3897 0001067 279.1579  80.9152 15.27577435 83314
STARLINK-31134          
1 58621U 23203D   25171.21064629 -.00000115  00000+0  53558-5 0  9996
2 58621  43.0016 109.8657 0000954 267.7867  92.2875 15.27574807 84589
STARLINK-31133          
1 58622U 23203E   25171.51175070 -.00190368  00000+0 -71898-2 0  9998
2 58622  43.0039 107.8237 0004592 251.7593 108.2759 15.27096646 83463
STARLINK-31068          
1 58623U 23203F   25171.18109459 -.00002972  00000+0 -98580-4 0  9992
2 58623  42.9979 109.6375 0000801 295.6386  64.4383 15.27564561 84580
STARLINK-31129          
1 58624U 23203G   25171.17852650  .00006029  00000+0  22832-3 0  9991
2 58624  42.9993 109.6209 0001415 264.8977  95.1713 15.27596143 84588
STARLINK-30774          
1 58625U 23203H   25170.97851027 -.00000033  00000+0  83107-5 0  9990
2 58625  43.0005 110.6985 0000722 233.9826 126.0959 15.27575986 84610
STARLINK-31086          
1 58626U 23203J   25171.21435616 -.00000178  00000+0  30564-5 0  9990
2 58626  43.0014 109.0309 0001045 234.1381 125.9374 15.27575020 84642
